{
  "type": "FeatureCollection",
  "features": [
    {
      "type": "Feature",
      "geometry": {
        "type": "LineString",
        "coordinates": [
          [121.6075, 25.0531],
          [121.5173, 25.0480],
          [121.4636, 24.9893],
          [121.2282, 24.9793],
          [121.1200, 24.9200],
          [120.9929, 24.7979],
          [120.8700, 24.6800],
          [120.8202, 24.5680],
          [120.7600, 24.4200],
          [120.6858, 24.1789],
          [120.4761, 24.0645],
          [120.3800, 23.9200],
          [120.3169, 23.7120],
          [120.3382, 23.4945],
          [120.2500, 23.2500],
          [120.1998, 23.0117],
          [120.2975, 22.6942]
        ]
      },
      "properties": {
        "name": "THSR",
        "operator": "台灣高鐵"
      }
    }
  ]
}
