{
  "type": "FeatureCollection",
  "features": [
    {
      "type": "Feature",
      "properties": { "line": "western", "name": "縱貫線", "operator": "台鐵", "color": "#ef4444" },
      "geometry": {
        "type": "LineString",
        "coordinates": [
          [121.7380, 25.1327],
          [121.7000, 25.0800],
          [121.6600, 25.0600],
          [121.6069, 25.0534],
          [121.5777, 25.0499],
          [121.5177, 25.0489],
          [121.4632, 24.9883],
          [121.4200, 24.9700],
          [121.3800, 24.9700],
          [121.3133, 24.9900],
          [121.2700, 24.9600],
          [121.2168, 24.9507],
          [121.1500, 24.9100],
          [121.0500, 24.8600],
          [120.9713, 24.8017],
          [120.9000, 24.7000],
          [120.8500, 24.6300],
          [120.8163, 24.5611],
          [120.7900, 24.5000],
          [120.7600, 24.4400],
          [120.7300, 24.3600],
          [120.7000, 24.3000],
          [120.6900, 24.2200],
          [120.6862, 24.1382],
          [120.6200, 24.1000],
          [120.5600, 24.0900],
          [120.5381, 24.0766],
          [120.5200, 24.0000],
          [120.5100, 23.8500],
          [120.4900, 23.7000],
          [120.4700, 23.6000],
          [120.4490, 23.4800],
          [120.3800, 23.3600],
          [120.3200, 23.2500],
          [120.2700, 23.1500],
          [120.2300, 23.0700],
          [120.2019, 22.9981],
          [120.2200, 22.8700],
          [120.2700, 22.7600],
          [120.3011, 22.6396]
        ]
      }
    },
    {
      "type": "Feature",
      "properties": { "line": "eastcoast", "name": "宜蘭線/北迴線/台東線", "operator": "台鐵", "color": "#a855f7" },
      "geometry": {
        "type": "LineString",
        "coordinates": [
          [121.5177, 25.0489],
          [121.6069, 25.0534],
          [121.7000, 25.0700],
          [121.7500, 25.0900],
          [121.8024, 25.1083],
          [121.8700, 25.0600],
          [121.9200, 25.0100],
          [121.9000, 24.9200],
          [121.8600, 24.8300],
          [121.8200, 24.7800],
          [121.7549, 24.7525],
          [121.7746, 24.6779],
          [121.8100, 24.6400],
          [121.8400, 24.6200],
          [121.8514, 24.5952],
          [121.8400, 24.5400],
          [121.8200, 24.4800],
          [121.7900, 24.4200],
          [121.7600, 24.3600],
          [121.7300, 24.2900],
          [121.6900, 24.2300],
          [121.6600, 24.1700],
          [121.6409, 24.1276],
          [121.6200, 24.0600],
          [121.6010, 23.9916],
          [121.5500, 23.8000],
          [121.5000, 23.7000],
          [121.4600, 23.5800],
          [121.4170, 23.4957],
          [121.3800, 23.3800],
          [121.3400, 23.2700],
          [121.2700, 23.1500],
          [121.2000, 23.0900],
          [121.1643, 23.0457],
          [121.1500, 22.9500],
          [121.1300, 22.8700],
          [121.1253, 22.7991]
        ]
      }
    }
  ]
}
